[{"OBJECT_NAME":"STARLINK-34818","OBJECT_ID":"2025-179D","EPOCH":"2026-03-09T17:06:09.215424","MEAN_MOTION":15.05647088,"ECCENTRICITY":0.00012755,"INCLINATION":97.6024,"RA_OF_ASC_NODE":113.0164,"ARG_OF_PERICENTER":89.464,"MEAN_ANOMALY":270.6733,"EPHEMERIS_TYPE":0,"CLASSIFICATION_TYPE":"U","NORAD_CAT_ID":65238,"ELEMENT_SET_NO":999,"REV_AT_EPOCH":3155,"BSTAR":6.6697902e-5,"MEAN_MOTION_DOT":9.02e-6,"MEAN_MOTION_DDOT":0},{"OBJECT_NAME":"CZ-6A DEB","OBJECT_ID":"2024-140FM","EPOCH":"2026-03-09T15:58:48.665856","MEAN_MOTION":15.24907574,"ECCENTRICITY":0.01008734,"INCLINATION":89.2247,"RA_OF_ASC_NODE":296.4931,"ARG_OF_PERICENTER":41.247,"MEAN_ANOMALY":319.6342,"EPHEMERIS_TYPE":0,"CLASSIFICATION_TYPE":"U","NORAD_CAT_ID":60786,"ELEMENT_SET_NO":999,"REV_AT_EPOCH":8558,"BSTAR":0.0022097808,"MEAN_MOTION_DOT":0.0006402,"MEAN_MOTION_DDOT":0}]
